ONEWEB-0120             
1 47266U 20100J   26190.71894040  .00000388  00000+0  10424-2 0  9990
2 47266  87.8956 346.1888 0002024  96.3181 263.8179 13.12443624267689
ONEWEB-0121             
1 47267U 20100K   26190.40198978  .00000009  00000+0 -11424-4 0  9998
2 47267  87.8961 346.2403 0001520  96.4640 263.6662 13.12443336267552
ONEWEB-0122             
1 47268U 20100L   26190.47229092 -.00000345  00000+0 -99360-3 0  9996
2 47268  87.8960 346.2314 0001935 100.7175 259.4172 13.12444440267472
ONEWEB-0123             
1 47269U 20100M   26190.39182186 -.00000280  00000+0 -81487-3 0  9999
2 47269  87.8949 346.2523 0001881  92.5658 267.5686 13.12443387267600
ONEWEB-0124             
1 47270U 20100N   26190.68660615 -.00000346  00000+0 -99826-3 0  9990
2 47270  87.8950 346.1959 0001724  93.9916 266.1409 13.12442316267524
ONEWEB-0125             
1 47271U 20100P   26190.66458898  .00000322  00000+0  85859-3 0  9990
2 47271  87.8962 346.1859 0001643  86.7941 273.3376 13.12442056267585
ONEWEB-0126             
1 47272U 20100Q   26190.45635016 -.00000558  00000+0 -15876-2 0  9991
2 47272  87.8963 346.2407 0001888  95.1256 265.0088 13.12441446267626
ONEWEB-0127             
1 47273U 20100R   26189.81243174  .00000443  00000+0  11959-2 0  9999
2 47273  87.8953 346.3671 0001981  96.5027 263.6328 13.12442873267564
ONEWEB-0128             
1 47274U 20100S   26190.67305850  .00000005  00000+0 -21342-4 0  9990
2 47274  87.8955 346.2097 0001717 105.7917 254.3401 13.12441658267699
ONEWEB-0129             
1 47275U 20100T   26190.72896964  .00000495  00000+0  13412-2 0  9997
2 47275  87.8959 346.1747 0002898  97.6796 262.4662 13.12442725267639
ONEWEB-0130             
1 47276U 20100U   26190.67983527 -.00000214  00000+0 -63150-3 0  9990
2 47276  87.8963 346.1802 0001857  98.4649 261.6690 13.12441614267590
ONEWEB-0131             
1 47277U 20100V   26190.67644871 -.00000094  00000+0 -29606-3 0  9991
2 47277  87.8952 346.1970 0001765  99.6175 260.5153 13.12441343267636
ONEWEB-0132             
1 47278U 20100W   26190.47653205 -.00000090  00000+0 -28681-3 0  9999
2 47278  87.8954 346.2391 0001814  97.8786 262.2548 13.12443573267500
ONEWEB-0133             
1 47279U 20100X   26190.72205083  .00000397  00000+0  10678-2 0  9999
2 47279  87.8968 346.1685 0001767  99.4588 260.6741 13.12443976267690
ONEWEB-0134             
1 47280U 20100Y   26190.69168792 -.00000434  00000+0 -12429-2 0  9992
2 47280  87.8966 346.1718 0001977 102.5380 257.5969 13.12441743267660
ONEWEB-0135             
1 47281U 20100Z   26190.51042035  .00000281  00000+0  74680-3 0  9991
2 47281  87.8952 346.2275 0001878 105.7814 254.3522 13.12442041267664
